{
  "type": "FeatureCollection",
  "features": [
    {
      "type": "Feature",
      "properties": {
        "norad_id": 34878,
        "name": "COSMOS 2251 DEB",
        "group": "cosmos-2251-debris",
        "lat": 8.804607913931957,
        "lon": 25.89579896227856,
        "alt_km": 770.606807780704,
        "timestamp": "2025-12-27T20:30:59.675327+00:00",
        "meta_object_name": "COSMOS 2251 DEB",
        "meta_object_id": "1993-036ACR",
        "meta_epoch": "2025-12-27T08:02:42.263232",
        "meta_mean_motion": 13.44210791,
        "meta_eccentricity": 0.0435727,
        "meta_inclination": 73.9646,
        "meta_ra_of_asc_node": 24.1669,
        "meta_arg_of_pericenter": 4.8421,
        "meta_mean_anomaly": 10.2546,
        "meta_ephemeris_type": 0,
        "meta_classification_type": "U",
        "meta_norad_cat_id": 34878,
        "meta_element_set_no": 999,
        "meta_rev_at_epoch": 81469,
        "meta_bstar": 0.00082696,
        "meta_mean_motion_dot": 8.28e-06,
        "meta_mean_motion_ddot": 0,
        "tle_line1": "1 34878U 93036ACR 25361.33521138  .00000828  00000+0  82696-3 0  9995",
        "tle_line2": "2 34878  73.9646  24.1669 0435727   4.8421  10.2546 13.44210791814690"
      },
      "geometry": {
        "type": "Point",
        "coordinates": [
          25.89579896227856,
          8.804607913931957
        ]
      }
    },
    {
      "type": "Feature",
      "properties": {
        "norad_id": 34882,
        "name": "COSMOS 2251 DEB",
        "group": "cosmos-2251-debris",
        "lat": 73.79621866356798,
        "lon": -83.42023556511478,
        "alt_km": 715.8060822875459,
        "timestamp": "2025-12-27T20:30:59.675337+00:00",
        "meta_object_name": "COSMOS 2251 DEB",
        "meta_object_id": "1993-036ACV",
        "meta_epoch": "2025-12-24T14:54:49.727232",
        "meta_mean_motion": 14.61616436,
        "meta_eccentricity": 0.00833525,
        "meta_inclination": 74.0451,
        "meta_ra_of_asc_node": 202.874,
        "meta_arg_of_pericenter": 327.0403,
        "meta_mean_anomaly": 32.5581,
        "meta_ephemeris_type": 0,
        "meta_classification_type": "U",
        "meta_norad_cat_id": 34882,
        "meta_element_set_no": 999,
        "meta_rev_at_epoch": 88698,
        "meta_bstar": 0.00012189648,
        "meta_mean_motion_dot": 6.03e-06,
        "meta_mean_motion_ddot": 0,
        "tle_line1": "1 34882U 93036ACV 25358.62140888  .00000603  00000+0  12190-3 0  9990",
        "tle_line2": "2 34882  74.0451 202.8740 0083352 327.0403  32.5581 14.61616436886982"
      },
      "geometry": {
        "type": "Point",
        "coordinates": [
          -83.42023556511478,
          73.79621866356798
        ]
      }
    },
    {
      "type": "Feature",
      "properties": {
        "norad_id": 34883,
        "name": "COSMOS 2251 DEB",
        "group": "cosmos-2251-debris",
        "lat": -41.33806211612871,
        "lon": 20.111356504654456,
        "alt_km": 736.5840897821035,
        "timestamp": "2025-12-27T20:30:59.675347+00:00",
        "meta_object_name": "COSMOS 2251 DEB",
        "meta_object_id": "1993-036ACW",
        "meta_epoch": "2025-12-27T10:47:44.568960",
        "meta_mean_motion": 14.519195,
        "meta_eccentricity": 0.0094026,
        "meta_inclination": 74.2008,
        "meta_ra_of_asc_node": 35.2895,
        "meta_arg_of_pericenter": 217.5903,
        "meta_mean_anomaly": 141.8664,
        "meta_ephemeris_type": 0,
        "meta_classification_type": "U",
        "meta_norad_cat_id": 34883,
        "meta_element_set_no": 999,
        "meta_rev_at_epoch": 86653,
        "meta_bstar": 0.003398,
        "meta_mean_motion_dot": 0.0001452,
        "meta_mean_motion_ddot": 0,
        "tle_line1": "1 34883U 93036ACW 25361.44982140  .00014520  00000+0  33980-2 0  9992",
        "tle_line2": "2 34883  74.2008  35.2895 0094026 217.5903 141.8664 14.51919500866532"
      },
      "geometry": {
        "type": "Point",
        "coordinates": [
          20.111356504654456,
          -41.33806211612871
        ]
      }
    },
    {
      "type": "Feature",
      "properties": {
        "norad_id": 34884,
        "name": "COSMOS 2251 DEB",
        "group": "cosmos-2251-debris",
        "lat": -12.475777717187485,
        "lon": -149.9215697616454,
        "alt_km": 602.0305212958328,
        "timestamp": "2025-12-27T20:30:59.675358+00:00",
        "meta_object_name": "COSMOS 2251 DEB",
        "meta_object_id": "1993-036ACX",
        "meta_epoch": "2025-12-27T12:07:42.723840",
        "meta_mean_motion": 14.90741411,
        "meta_eccentricity": 0.0003391,
        "meta_inclination": 74.0174,
        "meta_ra_of_asc_node": 27.1433,
        "meta_arg_of_pericenter": 25.0058,
        "meta_mean_anomaly": 92.9751,
        "meta_ephemeris_type": 0,
        "meta_classification_type": "U",
        "meta_norad_cat_id": 34884,
        "meta_element_set_no": 999,
        "meta_rev_at_epoch": 88025,
        "meta_bstar": 0.0027671,
        "meta_mean_motion_dot": 0.00027262,
        "meta_mean_motion_ddot": 0,
        "tle_line1": "1 34884U 93036ACX 25361.50535560  .00027262  00000+0  27671-2 0  9997",
        "tle_line2": "2 34884  74.0174  27.1433 0003391  25.0058  92.9751 14.90741411880256"
      },
      "geometry": {
        "type": "Point",
        "coordinates": [
          -149.9215697616454,
          -12.475777717187485
        ]
      }
    },
    {
      "type": "Feature",
      "properties": {
        "norad_id": 34885,
        "name": "COSMOS 2251 DEB",
        "group": "cosmos-2251-debris",
        "lat": 50.76373609988137,
        "lon": -45.968476064123614,
        "alt_km": 719.7766955917878,
        "timestamp": "2025-12-27T20:30:59.675368+00:00",
        "meta_object_name": "COSMOS 2251 DEB",
        "meta_object_id": "1993-036ACY",
        "meta_epoch": "2025-12-27T11:55:35.532192",
        "meta_mean_motion": 14.51586393,
        "meta_eccentricity": 0.0015038,
        "meta_inclination": 74.0298,
        "meta_ra_of_asc_node": 155.2337,
        "meta_arg_of_pericenter": 241.0616,
        "meta_mean_anomaly": 175.7402,
        "meta_ephemeris_type": 0,
        "meta_classification_type": "U",
        "meta_norad_cat_id": 34885,
        "meta_element_set_no": 999,
        "meta_rev_at_epoch": 87693,
        "meta_bstar": 0.0009219,
        "meta_mean_motion_dot": 3.671e-05,
        "meta_mean_motion_ddot": 0,
        "tle_line1": "1 34885U 93036ACY 25361.49693903  .00003671  00000+0  92190-3 0  9999",
        "tle_line2": "2 34885  74.0298 155.2337 0015038 241.0616 175.7402 14.51586393876937"
      },
      "geometry": {
        "type": "Point",
        "coordinates": [
          -45.968476064123614,
          50.76373609988137
        ]
      }
    },
    {
      "type": "Feature",
      "properties": {
        "norad_id": 34886,
        "name": "COSMOS 2251 DEB",
        "group": "cosmos-2251-debris",
        "lat": -39.41616499702479,
        "lon": 134.49357769996695,
        "alt_km": 428.7445879776351,
        "timestamp": "2025-12-27T20:30:59.675378+00:00",
        "meta_object_name": "COSMOS 2251 DEB",
        "meta_object_id": "1993-036ACZ",
        "meta_epoch": "2025-12-26T18:12:01.173888",
        "meta_mean_motion": 15.40542585,
        "meta_eccentricity": 0.00320594,
        "meta_inclination": 73.9515,
        "meta_ra_of_asc_node": 150.562,
        "meta_arg_of_pericenter": 332.3272,
        "meta_mean_anomaly": 27.6228,
        "meta_ephemeris_type": 0,
        "meta_classification_type": "U",
        "meta_norad_cat_id": 34886,
        "meta_element_set_no": 999,
        "meta_rev_at_epoch": 63214,
        "meta_bstar": 0.0018575938,
        "meta_mean_motion_dot": 0.00077584,
        "meta_mean_motion_ddot": 0,
        "tle_line1": "1 34886U 93036ACZ 25360.75834692  .00077584  00000+0  18576-2 0  9999",
        "tle_line2": "2 34886  73.9515 150.5620 0032059 332.3272  27.6228 15.40542585632143"
      },
      "geometry": {
        "type": "Point",
        "coordinates": [
          134.49357769996695,
          -39.41616499702479
        ]
      }
    },
    {
      "type": "Feature",
      "properties": {
        "norad_id": 34907,
        "name": "COSMOS 2251 DEB",
        "group": "cosmos-2251-debris",
        "lat": 67.47951320977518,
        "lon": 59.04428197193461,
        "alt_km": 394.8410190853647,
        "timestamp": "2025-12-27T20:30:59.675388+00:00",
        "meta_object_name": "COSMOS 2251 DEB",
        "meta_object_id": "1993-036ADC",
        "meta_epoch": "2025-12-26T00:59:09.943584",
        "meta_mean_motion": 15.54798885,
        "meta_eccentricity": 0.00149707,
        "meta_inclination": 73.9657,
        "meta_ra_of_asc_node": 19.1552,
        "meta_arg_of_pericenter": 322.4289,
        "meta_mean_anomaly": 37.5879,
        "meta_ephemeris_type": 0,
        "meta_classification_type": "U",
        "meta_norad_cat_id": 34907,
        "meta_element_set_no": 999,
        "meta_rev_at_epoch": 88179,
        "meta_bstar": 0.0076188915,
        "meta_mean_motion_dot": 0.0054544,
        "meta_mean_motion_ddot": 0,
        "tle_line1": "1 34907U 93036ADC 25360.04108731  .00545440  00000+0  76189-2 0  9998",
        "tle_line2": "2 34907  73.9657  19.1552 0014970 322.4289  37.5879 15.54798885881798"
      },
      "geometry": {
        "type": "Point",
        "coordinates": [
          59.04428197193461,
          67.47951320977518
        ]
      }
    }
  ]
}